43072,IRIDIUM 116,2017,100.4,860.0,+,86.39,Active,1,LEO,USA,USA,Commercial/Government,Communications,Falcon,1 43072U 17083C   24108.59814438  .00000291  00000+0  96767-4 0  9992,2 43072  86.3913 292.4122 0001929  89.1146 271.0271 14.34220902330856,14.34220902,0.0001929,LEO
43073,IRIDIUM 130,2017,100.4,860.0,+,86.39,Active,1,LEO,USA,USA,Commercial/Government,Communications,Falcon,1 43073U 17083D   24108.56644263  .00000285  00000+0  94785-4 0  9998,2 43073  86.3921 292.6242 0002220  87.4521 272.6929 14.34218858330791,14.34218858,0.000222,LEO
43074,IRIDIUM 151,2017,100.4,860.0,+,86.39,Active,1,LEO,USA,USA,Commercial/Government,Communications,Falcon,1 43074U 17083E   24108.61083657  .00000294  00000+0  97992-4 0  9992,2 43074  86.3915 292.4469 0002081 102.3180 257.8249 14.34219408330823,14.34219408,0.0002081,LEO
43075,IRIDIUM 134,2017,100.4,860.0,+,86.39,Active,1,LEO,USA,USA,Commercial/Government,Communications,Falcon,1 43075U 17083F   24108.57912158  .00000299  00000+0  99696-4 0  9993,2 43075  86.3915 292.4574 0002184  85.4707 274.6738 14.34219318330786,14.34219318,0.0002184,LEO
43076,IRIDIUM 137,2017,100.4,860.0,+,86.39,Active,1,LEO,USA,USA,Commercial/Government,Communications,Falcon,1 43076U 17083G   24108.59180936  .00000293  00000+0  97414-4 0  9997,2 43076  86.3917 292.5290 0001691  97.5631 262.5757 14.34218947330859,14.34218947,0.0001691,LEO
43077,IRIDIUM 141,2017,100.4,860.0,+,86.39,Active,1,LEO,USA,USA,Commercial/Government,Communications,Falcon,1 43077U 17083H   24108.58545279  .00000012  00000+0 -28778-5 0  9990,2 43077  86.3909 292.4070 0002056  92.5476 267.5955 14.34217281330859,14.34217281,0.0002056,LEO
43078,IRIDIUM 153,2017,100.4,860.0,+,86.39,Active,1,LEO,USA,USA,Commercial/Government,Communications,Falcon,1 43078U 17083J   24108.46786312  .00000188  00000+0  59973-4 0  9996,2 43078  86.3937 260.8869 0002564 100.2202 259.9283 14.34218709331940,14.34218709,0.0002564,LEO
43079,IRIDIUM 131,2017,100.4,860.0,+,86.39,Active,1,LEO,USA,USA,Commercial/Government,Communications,Falcon,1 43079U 17083K   24108.57278401  .00000289  00000+0  96285-4 0  9993,2 43079  86.3918 292.5458 0002008  93.8539 266.2886 14.34218892330783,14.34218892,0.0002008,LEO
